NAVSTAR 77 (USA 289)    
1 43873U 18109A   23207.26133892  .00000012  00000+0  00000+0 0  9993
2 43873  55.1830 133.9499 0024939 192.9929 336.3662  2.00567126 33874
